STARLINK-31975          
1 59886U 24100B   26068.54015810 -.00008701  00000+0 -30686-3 0  9992
2 59886  43.0001 126.2718 0000859 177.9327 182.1528 15.27599660101134
BANDWAGON-4 OBJECT M    
1 66304U 25248M   26068.03503276  .00023645  00000+0  95704-3 0  9995
2 66304  45.4108 294.9904 0012944 207.5285 152.4918 15.24295413 18037
